[{"OBJECT_NAME":"ONEWEB-0171","OBJECT_ID":"2021-025AE","EPOCH":"2025-08-03T12:14:29.895072","MEAN_MOTION":13.13470286,"ECCENTRICITY":0.000193,"INCLINATION":87.8961,"RA_OF_ASC_NODE":23.3584,"ARG_OF_PERICENTER":91.3595,"MEAN_ANOMALY":268.7755,"EPHEMERIS_TYPE":0,"CLASSIFICATION_TYPE":"U","NORAD_CAT_ID":48070,"ELEMENT_SET_NO":999,"REV_AT_EPOCH":21191,"BSTAR":-9.8365e-5,"MEAN_MOTION_DOT":-2.3e-7,"MEAN_MOTION_DDOT":0},{"OBJECT_NAME":"ONEWEB-0172","OBJECT_ID":"2021-025AF","EPOCH":"2025-08-03T11:45:14.350752","MEAN_MOTION":13.13470409,"ECCENTRICITY":0.0001706,"INCLINATION":87.8973,"RA_OF_ASC_NODE":23.3301,"ARG_OF_PERICENTER":86.2629,"MEAN_ANOMALY":273.8695,"EPHEMERIS_TYPE":0,"CLASSIFICATION_TYPE":"U","NORAD_CAT_ID":48071,"ELEMENT_SET_NO":999,"REV_AT_EPOCH":21280,"BSTAR":-0.00067641,"MEAN_MOTION_DOT":-2.34e-6,"MEAN_MOTION_DDOT":0},{"OBJECT_NAME":"ONEWEB-0174","OBJECT_ID":"2021-025AG","EPOCH":"2025-08-03T11:18:25.800480","MEAN_MOTION":13.13467223,"ECCENTRICITY":0.0001635,"INCLINATION":87.8975,"RA_OF_ASC_NODE":23.3476,"ARG_OF_PERICENTER":95.0426,"MEAN_ANOMALY":265.089,"EPHEMERIS_TYPE":0,"CLASSIFICATION_TYPE":"U","NORAD_CAT_ID":48072,"ELEMENT_SET_NO":999,"REV_AT_EPOCH":21212,"BSTAR":0.00046578,"MEAN_MOTION_DOT":1.83e-6,"MEAN_MOTION_DDOT":0},{"OBJECT_NAME":"ONEWEB-0175","OBJECT_ID":"2021-025AH","EPOCH":"2025-08-03T12:02:18.182976","MEAN_MOTION":13.13470231,"ECCENTRICITY":0.0001965,"INCLINATION":87.8966,"RA_OF_ASC_NODE":23.3057,"ARG_OF_PERICENTER":83.7449,"MEAN_ANOMALY":276.3904,"EPHEMERIS_TYPE":0,"CLASSIFICATION_TYPE":"U","NORAD_CAT_ID":48073,"ELEMENT_SET_NO":999,"REV_AT_EPOCH":21178,"BSTAR":-0.00076478,"MEAN_MOTION_DOT":-2.67e-6,"MEAN_MOTION_DDOT":0},{"OBJECT_NAME":"ONEWEB-0177","OBJECT_ID":"2021-025AJ","EPOCH":"2025-08-03T12:19:21.567648","MEAN_MOTION":13.13470052,"ECCENTRICITY":0.0001653,"INCLINATION":87.8966,"RA_OF_ASC_NODE":23.3177,"ARG_OF_PERICENTER":95.6496,"MEAN_ANOMALY":264.4822,"EPHEMERIS_TYPE":0,"CLASSIFICATION_TYPE":"U","NORAD_CAT_ID":48074,"ELEMENT_SET_NO":999,"REV_AT_EPOCH":21197,"BSTAR":8.4838e-6,"MEAN_MOTION_DOT":1.6e-7,"MEAN_MOTION_DDOT":0},{"OBJECT_NAME":"ONEWEB-0178","OBJECT_ID":"2021-025AK","EPOCH":"2025-08-03T10:56:41.107776","MEAN_MOTION":13.13471242,"ECCENTRICITY":0.0001681,"INCLINATION":87.8973,"RA_OF_ASC_NODE":23.3758,"ARG_OF_PERICENTER":82.8238,"MEAN_ANOMALY":277.3082,"EPHEMERIS_TYPE":0,"CLASSIFICATION_TYPE":"U","NORAD_CAT_ID":48075,"ELEMENT_SET_NO":999,"REV_AT_EPOCH":21201,"BSTAR":0.0010334,"MEAN_MOTION_DOT":3.9e-6,"MEAN_MOTION_DDOT":0},{"OBJECT_NAME":"ONEWEB-0108","OBJECT_ID":"2021-025AL","EPOCH":"2025-08-03T11:47:40.499808","MEAN_MOTION":13.13469551,"ECCENTRICITY":0.0001884,"INCLINATION":87.897,"RA_OF_ASC_NODE":23.3171,"ARG_OF_PERICENTER":98.0197,"MEAN_ANOMALY":262.1146,"EPHEMERIS_TYPE":0,"CLASSIFICATION_TYPE":"U","NORAD_CAT_ID":48076,"ELEMENT_SET_NO":999,"REV_AT_EPOCH":21194,"BSTAR":-0.0007246,"MEAN_MOTION_DOT":-2.52e-6,"MEAN_MOTION_DDOT":0},{"OBJECT_NAME":"ONEWEB-0169","OBJECT_ID":"2021-025AM","EPOCH":"2025-08-03T12:34:00.380064","MEAN_MOTION":13.13470486,"ECCENTRICITY":0.0002065,"INCLINATION":87.8969,"RA_OF_ASC_NODE":23.332,"ARG_OF_PERICENTER":101.2522,"MEAN_ANOMALY":258.8839,"EPHEMERIS_TYPE":0,"CLASSIFICATION_TYPE":"U","NORAD_CAT_ID":48077,"ELEMENT_SET_NO":999,"REV_AT_EPOCH":21060,"BSTAR":0.00080451,"MEAN_MOTION_DOT":3.07e-6,"MEAN_MOTION_DDOT":0},{"OBJECT_NAME":"ONEWEB-0176","OBJECT_ID":"2021-031A","EPOCH":"2025-08-03T11:07:13.108224","MEAN_MOTION":13.14499592,"ECCENTRICITY":0.0001791,"INCLINATION":87.9074,"RA_OF_ASC_NODE":352.9245,"ARG_OF_PERICENTER":98.4387,"MEAN_ANOMALY":261.6946,"EPHEMERIS_TYPE":0,"CLASSIFICATION_TYPE":"U","NORAD_CAT_ID":48210,"ELEMENT_SET_NO":999,"REV_AT_EPOCH":20657,"BSTAR":-0.00073085,"MEAN_MOTION_DOT":-2.58e-6,"MEAN_MOTION_DDOT":0},{"OBJECT_NAME":"ONEWEB-0184","OBJECT_ID":"2021-031B","EPOCH":"2025-08-03T10:28:24.709440","MEAN_MOTION":13.14502681,"ECCENTRICITY":0.0002053,"INCLINATION":87.9068,"RA_OF_ASC_NODE":352.9001,"ARG_OF_PERICENTER":72.7701,"MEAN_ANOMALY":287.3653,"EPHEMERIS_TYPE":0,"CLASSIFICATION_TYPE":"U","NORAD_CAT_ID":48211,"ELEMENT_SET_NO":999,"REV_AT_EPOCH":20654,"BSTAR":-1.9688e-5,"MEAN_MOTION_DOT":5.0e-8,"MEAN_MOTION_DDOT":0},{"OBJECT_NAME":"ONEWEB-0179","OBJECT_ID":"2021-031C","EPOCH":"2025-08-03T09:46:09.274656","MEAN_MOTION":13.14502465,"ECCENTRICITY":0.0001765,"INCLINATION":87.9069,"RA_OF_ASC_NODE":352.9239,"ARG_OF_PERICENTER":98.6352,"MEAN_ANOMALY":261.4977,"EPHEMERIS_TYPE":0,"CLASSIFICATION_TYPE":"U","NORAD_CAT_ID":48212,"ELEMENT_SET_NO":999,"REV_AT_EPOCH":20658,"BSTAR":-0.00070783,"MEAN_MOTION_DOT":-2.5e-6,"MEAN_MOTION_DDOT":0},{"OBJECT_NAME":"ONEWEB-0180","OBJECT_ID":"2021-031D","EPOCH":"2025-08-03T10:32:59.398368","MEAN_MOTION":13.14502884,"ECCENTRICITY":0.0001614,"INCLINATION":87.9068,"RA_OF_ASC_NODE":352.9046,"ARG_OF_PERICENTER":94.2514,"MEAN_ANOMALY":265.88,"EPHEMERIS_TYPE":0,"CLASSIFICATION_TYPE":"U","NORAD_CAT_ID":48213,"ELEMENT_SET_NO":999,"REV_AT_EPOCH":20647,"BSTAR":0.00055783,"MEAN_MOTION_DOT":2.2e-6,"MEAN_MOTION_DDOT":0},{"OBJECT_NAME":"ONEWEB-0218","OBJECT_ID":"2021-031E","EPOCH":"2025-08-03T09:15:19.669248","MEAN_MOTION":13.145052,"ECCENTRICITY":0.000191,"INCLINATION":87.9072,"RA_OF_ASC_NODE":352.9146,"ARG_OF_PERICENTER":66.3561,"MEAN_ANOMALY":293.7769,"EPHEMERIS_TYPE":0,"CLASSIFICATION_TYPE":"U","NORAD_CAT_ID":48214,"ELEMENT_SET_NO":999,"REV_AT_EPOCH":20662,"BSTAR":-2.3894e-5,"MEAN_MOTION_DOT":4.0e-8,"MEAN_MOTION_DDOT":0},{"OBJECT_NAME":"ONEWEB-0209","OBJECT_ID":"2021-031F","EPOCH":"2025-08-03T10:48:56.808864","MEAN_MOTION":13.1450481,"ECCENTRICITY":0.0002051,"INCLINATION":87.9077,"RA_OF_ASC_NODE":352.9483,"ARG_OF_PERICENTER":106.4202,"MEAN_ANOMALY":253.7154,"EPHEMERIS_TYPE":0,"CLASSIFICATION_TYPE":"U","NORAD_CAT_ID":48215,"ELEMENT_SET_NO":999,"REV_AT_EPOCH":20663,"BSTAR":0.00056134,"MEAN_MOTION_DOT":2.21e-6,"MEAN_MOTION_DDOT":0},{"OBJECT_NAME":"ONEWEB-0198","OBJECT_ID":"2021-031G","EPOCH":"2025-08-03T10:26:07.766304","MEAN_MOTION":13.14499752,"ECCENTRICITY":0.0001492,"INCLINATION":87.9066,"RA_OF_ASC_NODE":352.9514,"ARG_OF_PERICENTER":85.2919,"MEAN_ANOMALY":274.8381,"EPHEMERIS_TYPE":0,"CLASSIFICATION_TYPE":"U","NORAD_CAT_ID":48216,"ELEMENT_SET_NO":999,"REV_AT_EPOCH":20674,"BSTAR":0.00032945,"MEAN_MOTION_DOT":1.35e-6,"MEAN_MOTION_DDOT":0},{"OBJECT_NAME":"ONEWEB-0189","OBJECT_ID":"2021-031H","EPOCH":"2025-08-03T10:44:24.129600","MEAN_MOTION":13.14501995,"ECCENTRICITY":0.0001555,"INCLINATION":87.9069,"RA_OF_ASC_NODE":352.9228,"ARG_OF_PERICENTER":85.9311,"MEAN_ANOMALY":274.1996,"EPHEMERIS_TYPE":0,"CLASSIFICATION_TYPE":"U","NORAD_CAT_ID":48217,"ELEMENT_SET_NO":999,"REV_AT_EPOCH":20648,"BSTAR":0.00050557,"MEAN_MOTION_DOT":2.0e-6,"MEAN_MOTION_DDOT":0},{"OBJECT_NAME":"ONEWEB-0196","OBJECT_ID":"2021-031J","EPOCH":"2025-08-03T10:12:26.256960","MEAN_MOTION":13.14502466,"ECCENTRICITY":0.0001681,"INCLINATION":87.9073,"RA_OF_ASC_NODE":352.9394,"ARG_OF_PERICENTER":95.2927,"MEAN_ANOMALY":264.8394,"EPHEMERIS_TYPE":0,"CLASSIFICATION_TYPE":"U","NORAD_CAT_ID":48218,"ELEMENT_SET_NO":999,"REV_AT_EPOCH":20648,"BSTAR":-0.00015167,"MEAN_MOTION_DOT":-4.3e-7,"MEAN_MOTION_DDOT":0}]
