ONEWEB-0171             
1 48070U 21025AE  25215.51006823 -.00000023  00000+0 -98365-4 0  9990
2 48070  87.8961  23.3584 0001930  91.3595 268.7755 13.13470286211919
ONEWEB-0172             
1 48071U 21025AF  25215.48974943 -.00000234  00000+0 -67641-3 0  9990
2 48071  87.8973  23.3301 0001706  86.2629 273.8695 13.13470409212808
ONEWEB-0174             
1 48072U 21025AG  25215.47113195  .00000183  00000+0  46578-3 0  9991
2 48072  87.8975  23.3476 0001635  95.0426 265.0890 13.13467223212123
ONEWEB-0175             
1 48073U 21025AH  25215.50159934 -.00000267  00000+0 -76478-3 0  9994
2 48073  87.8966  23.3057 0001965  83.7449 276.3904 13.13470231211789
ONEWEB-0177             
1 48074U 21025AJ  25215.51344407  .00000016  00000+0  84838-5 0  9998
2 48074  87.8966  23.3177 0001653  95.6496 264.4822 13.13470052211970
ONEWEB-0178             
1 48075U 21025AK  25215.45603134  .00000390  00000+0  10334-2 0  9999
2 48075  87.8973  23.3758 0001681  82.8238 277.3082 13.13471242212016
ONEWEB-0108             
1 48076U 21025AL  25215.49144097 -.00000252  00000+0 -72460-3 0  9990
2 48076  87.8970  23.3171 0001884  98.0197 262.1146 13.13469551211945
ONEWEB-0169             
1 48077U 21025AM  25215.52361551  .00000307  00000+0  80451-3 0  9999
2 48077  87.8969  23.3320 0002065 101.2522 258.8839 13.13470486210603
ONEWEB-0176             
1 48210U 21031A   25215.46334616 -.00000258  00000+0 -73085-3 0  9992
2 48210  87.9074 352.9245 0001791  98.4387 261.6946 13.14499592206570
ONEWEB-0184             
1 48211U 21031B   25215.43639710  .00000005  00000+0 -19688-4 0  9992
2 48211  87.9068 352.9001 0002053  72.7701 287.3653 13.14502681206542
ONEWEB-0179             
1 48212U 21031C   25215.40705179 -.00000250  00000+0 -70783-3 0  9998
2 48212  87.9069 352.9239 0001765  98.6352 261.4977 13.14502465206581
ONEWEB-0180             
1 48213U 21031D   25215.43957637  .00000220  00000+0  55783-3 0  9998
2 48213  87.9068 352.9046 0001614  94.2514 265.8800 13.14502884206478
ONEWEB-0218             
1 48214U 21031E   25215.38564432  .00000004  00000+0 -23894-4 0  9990
2 48214  87.9072 352.9146 0001910  66.3561 293.7769 13.14505200206622
ONEWEB-0209             
1 48215U 21031F   25215.45065751  .00000221  00000+0  56134-3 0  9991
2 48215  87.9077 352.9483 0002051 106.4202 253.7154 13.14504810206638
ONEWEB-0198             
1 48216U 21031G   25215.43481211  .00000135  00000+0  32945-3 0  9991
2 48216  87.9066 352.9514 0001492  85.2919 274.8381 13.14499752206745
ONEWEB-0189             
1 48217U 21031H   25215.44750150  .00000200  00000+0  50557-3 0  9996
2 48217  87.9069 352.9228 0001555  85.9311 274.1996 13.14501995206483
ONEWEB-0196             
1 48218U 21031J   25215.42530390 -.00000043  00000+0 -15167-3 0  9992
2 48218  87.9073 352.9394 0001681  95.2927 264.8394 13.14502466206482
